IRIDIUM 171             
1 43929U 19002H   24330.26882518  .00000358  00000+0  12085-3 0  9995
2 43929  86.4005 231.5250 0001846  81.5296 278.6109 14.34220944307411
IRIDIUM 170             
1 43930U 19002J   24330.34342863  .00003082  00000+0  48459-3 0  9991
2 43930  86.6122 231.2848 0002401  88.9114 271.2379 14.72268081315562
IRIDIUM 167             
1 43931U 19002K   24330.26248756 -.00000018  00000+0 -13533-4 0  9993
2 43931  86.3999 231.3016 0001957  71.1153 289.0255 14.34217315307419
IRIDIUM 181             
1 56726U 23068S   24330.40673253  .00001082  00000+0  31371-3 0  9995
2 56726  86.8594 292.8079 0002071  79.5006 280.6429 14.43585316 80393
IRIDIUM 177             
1 56727U 23068T   24330.25227294  .00004522  00000+0  59098-3 0  9997
2 56727  86.1986 238.8602 0002543  69.9653 290.1841 14.80263800 82207
IRIDIUM 174             
1 56728U 23068U   24330.58481833  .00004151  00000+0  54240-3 0  9997
2 56728  86.1996 238.8185 0002502  87.3024 272.8483 14.80251929 82259
IRIDIUM 178             
1 56729U 23068V   24330.78222131  .00004149  00000+0  54239-3 0  9999
2 56729  86.5765 263.8395 0002303  75.0014 285.1463 14.80242723 82281
IRIDIUM 179             
1 56730U 23068W   24330.43886149  .00004479  00000+0  58588-3 0  9995
2 56730  86.6769 270.1536 0002822  84.8514 275.3030 14.80234402 82236
